STARLINK-5695           
1 55485U 23015AN  26078.91667824  .00090473  00000+0  37459-2 0  9996
2 55485  42.9991 281.8446 0001807 244.1319  16.6562 15.22923501  5726
STARLINK-5704           
1 55486U 23015AP  26078.91667824  .01337068  00000+0  48806-1 0  9999
2 55486  42.9997 282.0227 0001468 234.0777 288.3504 15.24746978  5774
STARLINK-5701           
1 55487U 23015AQ  26078.91667824  .00087777  00000+0  35083-2 0  9992
2 55487  42.9987 281.8698 0001229 239.3811   7.7680 15.24126309  5728
STARLINK-5706           
1 55488U 23015AR  26078.91667824  .00090789  00000+0  38491-2 0  9996
2 55488  42.9991 281.7721 0002102 252.6422  35.4054 15.22119689  5631
STARLINK-5371           
1 55489U 23015AS  26078.91667824  .00090643  00000+0  36812-2 0  9991
2 55489  42.9998 281.7263 0002172 256.5669  53.9627 15.23572622  5679
STARLINK-5373           
1 55490U 23015AT  26078.91667824  .00026295  00000+0  98689-3 0  9996
2 55490  43.0001 281.4538 0001551 268.6371 152.1537 15.26725029  5771
STARLINK-5364           
1 55491U 23015AU  26078.84238854  .00011368  00000+0  85619-3 0  9990
2 55491  43.0014 257.5957 0001434 279.9047  80.1633 15.02492129172431
STARLINK-5013           
1 55492U 23015AV  26078.91667824  .01033612  00000+0  39942-1 0  9995
2 55492  43.0023 281.8674 0001596 277.3062 330.8932 15.22626583  5781
STARLINK-5362           
1 55493U 23015AW  26078.91667824  .00086626  00000+0  33453-2 0  9990
2 55493  42.9987 281.3788 0001450 288.9326 163.6872 15.25281099  5776
STARLINK-5344           
1 55494U 23015AX  26078.91667824  .00087798  00000+0  37599-2 0  9997
2 55494  42.9996 281.7037 0002171 257.2208  59.6374 15.21794923  5825
STARLINK-5100           
1 55495U 23015AY  26077.49790996  .00062488  00000+0  45371-2 0  9993
2 55495  43.0029 265.5786 0001470 277.9929  82.0747 15.03053107172221
STARLINK-5363           
1 55497U 23015BA  26078.91667824  .01344793  00000+0  52063-1 0  9994
2 55497  42.9992 282.0047 0000956 253.1282 294.4406 15.22742539  5827
STARLINK-5365           
1 55498U 23015BB  26078.91667824  .00056393  00000+0  25537-2 0  9997
2 55498  42.9989 281.7581 0001348 238.5627  50.3327 15.20087681  5772
STARLINK-5366           
1 55499U 23015BC  26078.91667824  .00086734  00000+0  35932-2 0  9990
2 55499  42.9987 281.5088 0001903 277.0961 117.5344 15.22924955  5778
STARLINK-5141           
1 55500U 23015BD  26078.91667824  .00088251  00000+0  38887-2 0  9991
2 55500  42.9991 281.7955 0002000 248.0333  28.8833 15.20819379  5689
STARLINK-5367           
1 55501U 23015BE  26078.91667824  .00058282  00000+0  26854-2 0  9994
2 55501  42.9986 281.8122 0001317 251.9261  12.7832 15.19478064  5775
