[{"OBJECT_NAME":"STARLINK-5695","OBJECT_ID":"2023-015AN","EPOCH":"2026-03-19T22:00:00.999936","MEAN_MOTION":15.22923501,"ECCENTRICITY":0.0001807,"INCLINATION":42.9991,"RA_OF_ASC_NODE":281.8446,"ARG_OF_PERICENTER":244.1319,"MEAN_ANOMALY":16.6562,"EPHEMERIS_TYPE":0,"CLASSIFICATION_TYPE":"U","NORAD_CAT_ID":55485,"ELEMENT_SET_NO":999,"REV_AT_EPOCH":572,"BSTAR":0.0037458719,"MEAN_MOTION_DOT":0.00090473,"MEAN_MOTION_DDOT":0},{"OBJECT_NAME":"STARLINK-5704","OBJECT_ID":"2023-015AP","EPOCH":"2026-03-19T22:00:00.999936","MEAN_MOTION":15.24746978,"ECCENTRICITY":0.00014681,"INCLINATION":42.9997,"RA_OF_ASC_NODE":282.0227,"ARG_OF_PERICENTER":234.0777,"MEAN_ANOMALY":288.3504,"EPHEMERIS_TYPE":0,"CLASSIFICATION_TYPE":"U","NORAD_CAT_ID":55486,"ELEMENT_SET_NO":999,"REV_AT_EPOCH":577,"BSTAR":0.048805597,"MEAN_MOTION_DOT":0.01337068,"MEAN_MOTION_DDOT":0},{"OBJECT_NAME":"STARLINK-5701","OBJECT_ID":"2023-015AQ","EPOCH":"2026-03-19T22:00:00.999936","MEAN_MOTION":15.24126309,"ECCENTRICITY":0.00012291,"INCLINATION":42.9987,"RA_OF_ASC_NODE":281.8698,"ARG_OF_PERICENTER":239.3811,"MEAN_ANOMALY":7.768,"EPHEMERIS_TYPE":0,"CLASSIFICATION_TYPE":"U","NORAD_CAT_ID":55487,"ELEMENT_SET_NO":999,"REV_AT_EPOCH":572,"BSTAR":0.0035082674,"MEAN_MOTION_DOT":0.00087777,"MEAN_MOTION_DDOT":0},{"OBJECT_NAME":"STARLINK-5706","OBJECT_ID":"2023-015AR","EPOCH":"2026-03-19T22:00:00.999936","MEAN_MOTION":15.22119689,"ECCENTRICITY":0.00021028,"INCLINATION":42.9991,"RA_OF_ASC_NODE":281.7721,"ARG_OF_PERICENTER":252.6422,"MEAN_ANOMALY":35.4054,"EPHEMERIS_TYPE":0,"CLASSIFICATION_TYPE":"U","NORAD_CAT_ID":55488,"ELEMENT_SET_NO":999,"REV_AT_EPOCH":563,"BSTAR":0.0038490713,"MEAN_MOTION_DOT":0.00090789,"MEAN_MOTION_DDOT":0},{"OBJECT_NAME":"STARLINK-5371","OBJECT_ID":"2023-015AS","EPOCH":"2026-03-19T22:00:00.999936","MEAN_MOTION":15.23572622,"ECCENTRICITY":0.00021724,"INCLINATION":42.9998,"RA_OF_ASC_NODE":281.7263,"ARG_OF_PERICENTER":256.5669,"MEAN_ANOMALY":53.9627,"EPHEMERIS_TYPE":0,"CLASSIFICATION_TYPE":"U","NORAD_CAT_ID":55489,"ELEMENT_SET_NO":999,"REV_AT_EPOCH":567,"BSTAR":0.0036811814,"MEAN_MOTION_DOT":0.00090643,"MEAN_MOTION_DDOT":0},{"OBJECT_NAME":"STARLINK-5373","OBJECT_ID":"2023-015AT","EPOCH":"2026-03-19T22:00:00.999936","MEAN_MOTION":15.26725029,"ECCENTRICITY":0.00015518,"INCLINATION":43.0001,"RA_OF_ASC_NODE":281.4538,"ARG_OF_PERICENTER":268.6371,"MEAN_ANOMALY":152.1537,"EPHEMERIS_TYPE":0,"CLASSIFICATION_TYPE":"U","NORAD_CAT_ID":55490,"ELEMENT_SET_NO":999,"REV_AT_EPOCH":577,"BSTAR":0.00098688749,"MEAN_MOTION_DOT":0.00026295,"MEAN_MOTION_DDOT":0},{"OBJECT_NAME":"STARLINK-5364","OBJECT_ID":"2023-015AU","EPOCH":"2026-03-19T20:13:02.369856","MEAN_MOTION":15.02492129,"ECCENTRICITY":0.00014342,"INCLINATION":43.0014,"RA_OF_ASC_NODE":257.5957,"ARG_OF_PERICENTER":279.9047,"MEAN_ANOMALY":80.1633,"EPHEMERIS_TYPE":0,"CLASSIFICATION_TYPE":"U","NORAD_CAT_ID":55491,"ELEMENT_SET_NO":999,"REV_AT_EPOCH":17243,"BSTAR":0.00085619332,"MEAN_MOTION_DOT":0.00011368,"MEAN_MOTION_DDOT":0},{"OBJECT_NAME":"STARLINK-5013","OBJECT_ID":"2023-015AV","EPOCH":"2026-03-19T22:00:00.999936","MEAN_MOTION":15.22626583,"ECCENTRICITY":0.00015964,"INCLINATION":43.0023,"RA_OF_ASC_NODE":281.8674,"ARG_OF_PERICENTER":277.3062,"MEAN_ANOMALY":330.8932,"EPHEMERIS_TYPE":0,"CLASSIFICATION_TYPE":"U","NORAD_CAT_ID":55492,"ELEMENT_SET_NO":999,"REV_AT_EPOCH":578,"BSTAR":0.03994186,"MEAN_MOTION_DOT":0.01033612,"MEAN_MOTION_DDOT":0},{"OBJECT_NAME":"STARLINK-5362","OBJECT_ID":"2023-015AW","EPOCH":"2026-03-19T22:00:00.999936","MEAN_MOTION":15.25281099,"ECCENTRICITY":0.00014505,"INCLINATION":42.9987,"RA_OF_ASC_NODE":281.3788,"ARG_OF_PERICENTER":288.9326,"MEAN_ANOMALY":163.6872,"EPHEMERIS_TYPE":0,"CLASSIFICATION_TYPE":"U","NORAD_CAT_ID":55493,"ELEMENT_SET_NO":999,"REV_AT_EPOCH":577,"BSTAR":0.0033453258,"MEAN_MOTION_DOT":0.00086626,"MEAN_MOTION_DDOT":0},{"OBJECT_NAME":"STARLINK-5344","OBJECT_ID":"2023-015AX","EPOCH":"2026-03-19T22:00:00.999936","MEAN_MOTION":15.21794923,"ECCENTRICITY":0.00021713,"INCLINATION":42.9996,"RA_OF_ASC_NODE":281.7037,"ARG_OF_PERICENTER":257.2208,"MEAN_ANOMALY":59.6374,"EPHEMERIS_TYPE":0,"CLASSIFICATION_TYPE":"U","NORAD_CAT_ID":55494,"ELEMENT_SET_NO":999,"REV_AT_EPOCH":582,"BSTAR":0.0037598957,"MEAN_MOTION_DOT":0.00087798,"MEAN_MOTION_DDOT":0},{"OBJECT_NAME":"STARLINK-5100","OBJECT_ID":"2023-015AY","EPOCH":"2026-03-18T11:56:59.420544","MEAN_MOTION":15.03053107,"ECCENTRICITY":0.00014708,"INCLINATION":43.0029,"RA_OF_ASC_NODE":265.5786,"ARG_OF_PERICENTER":277.9929,"MEAN_ANOMALY":82.0747,"EPHEMERIS_TYPE":0,"CLASSIFICATION_TYPE":"U","NORAD_CAT_ID":55495,"ELEMENT_SET_NO":999,"REV_AT_EPOCH":17222,"BSTAR":0.0045370966,"MEAN_MOTION_DOT":0.00062488,"MEAN_MOTION_DDOT":0},{"OBJECT_NAME":"STARLINK-5363","OBJECT_ID":"2023-015BA","EPOCH":"2026-03-19T22:00:00.999936","MEAN_MOTION":15.22742539,"ECCENTRICITY":9.565e-5,"INCLINATION":42.9992,"RA_OF_ASC_NODE":282.0047,"ARG_OF_PERICENTER":253.1282,"MEAN_ANOMALY":294.4406,"EPHEMERIS_TYPE":0,"CLASSIFICATION_TYPE":"U","NORAD_CAT_ID":55497,"ELEMENT_SET_NO":999,"REV_AT_EPOCH":582,"BSTAR":0.052062837,"MEAN_MOTION_DOT":0.01344793,"MEAN_MOTION_DDOT":0},{"OBJECT_NAME":"STARLINK-5365","OBJECT_ID":"2023-015BB","EPOCH":"2026-03-19T22:00:00.999936","MEAN_MOTION":15.20087681,"ECCENTRICITY":0.00013482,"INCLINATION":42.9989,"RA_OF_ASC_NODE":281.7581,"ARG_OF_PERICENTER":238.5627,"MEAN_ANOMALY":50.3327,"EPHEMERIS_TYPE":0,"CLASSIFICATION_TYPE":"U","NORAD_CAT_ID":55498,"ELEMENT_SET_NO":999,"REV_AT_EPOCH":577,"BSTAR":0.0025536865,"MEAN_MOTION_DOT":0.00056393,"MEAN_MOTION_DDOT":0},{"OBJECT_NAME":"STARLINK-5366","OBJECT_ID":"2023-015BC","EPOCH":"2026-03-19T22:00:00.999936","MEAN_MOTION":15.22924955,"ECCENTRICITY":0.0001903,"INCLINATION":42.9987,"RA_OF_ASC_NODE":281.5088,"ARG_OF_PERICENTER":277.0961,"MEAN_ANOMALY":117.5344,"EPHEMERIS_TYPE":0,"CLASSIFICATION_TYPE":"U","NORAD_CAT_ID":55499,"ELEMENT_SET_NO":999,"REV_AT_EPOCH":577,"BSTAR":0.0035931702,"MEAN_MOTION_DOT":0.00086734,"MEAN_MOTION_DDOT":0},{"OBJECT_NAME":"STARLINK-5141","OBJECT_ID":"2023-015BD","EPOCH":"2026-03-19T22:00:00.999936","MEAN_MOTION":15.20819379,"ECCENTRICITY":0.00020009,"INCLINATION":42.9991,"RA_OF_ASC_NODE":281.7955,"ARG_OF_PERICENTER":248.0333,"MEAN_ANOMALY":28.8833,"EPHEMERIS_TYPE":0,"CLASSIFICATION_TYPE":"U","NORAD_CAT_ID":55500,"ELEMENT_SET_NO":999,"REV_AT_EPOCH":568,"BSTAR":0.003888721,"MEAN_MOTION_DOT":0.00088251,"MEAN_MOTION_DDOT":0},{"OBJECT_NAME":"STARLINK-5367","OBJECT_ID":"2023-015BE","EPOCH":"2026-03-19T22:00:00.999936","MEAN_MOTION":15.19478064,"ECCENTRICITY":0.0001317,"INCLINATION":42.9986,"RA_OF_ASC_NODE":281.8122,"ARG_OF_PERICENTER":251.9261,"MEAN_ANOMALY":12.7832,"EPHEMERIS_TYPE":0,"CLASSIFICATION_TYPE":"U","NORAD_CAT_ID":55501,"ELEMENT_SET_NO":999,"REV_AT_EPOCH":577,"BSTAR":0.0026853667,"MEAN_MOTION_DOT":0.00058282,"MEAN_MOTION_DDOT":0}]
